{
  "type": "FeatureCollection",
  "features": [
    {
      "type": "Feature",
      "properties": {
        "norad_id": 66545,
        "name": "SHIJIAN-30A",
        "group": "last-30-days",
        "lat": -5.429195805617456,
        "lon": -17.603967833164532,
        "alt_km": 511.9870769003137,
        "timestamp": "2025-12-09T18:55:16.022489+00:00",
        "meta_object_name": "SHIJIAN-30A",
        "meta_object_id": "2025-266A",
        "meta_epoch": "2025-12-09T14:12:13.298976",
        "meta_mean_motion": 15.15548142,
        "meta_eccentricity": 0.00127793,
        "meta_inclination": 51.7992,
        "meta_ra_of_asc_node": 347.6095,
        "meta_arg_of_pericenter": 344.9581,
        "meta_mean_anomaly": 15.1014,
        "meta_ephemeris_type": 0,
        "meta_classification_type": "U",
        "meta_norad_cat_id": 66545,
        "meta_element_set_no": 999,
        "meta_rev_at_epoch": 310,
        "meta_bstar": 0.00076427881,
        "meta_mean_motion_dot": 0.00014422,
        "meta_mean_motion_ddot": 0,
        "tle_line1": "1 66545U 25266A   25343.59182059  .00014422  00000+0  76428-3 0  9995",
        "tle_line2": "2 66545  51.7992 347.6095 0012779 344.9581  15.1014 15.15548142  3107"
      },
      "geometry": {
        "type": "Point",
        "coordinates": [
          -17.603967833164532,
          -5.429195805617456
        ]
      }
    },
    {
      "type": "Feature",
      "properties": {
        "norad_id": 66546,
        "name": "SHIJIAN-30B",
        "group": "last-30-days",
        "lat": -8.210910396317466,
        "lon": -19.832524080607328,
        "alt_km": 513.5693963740405,
        "timestamp": "2025-12-09T18:55:16.022501+00:00",
        "meta_object_name": "SHIJIAN-30B",
        "meta_object_id": "2025-266B",
        "meta_epoch": "2025-12-09T14:13:10.595136",
        "meta_mean_motion": 15.15642408,
        "meta_eccentricity": 0.00104277,
        "meta_inclination": 51.7973,
        "meta_ra_of_asc_node": 347.6109,
        "meta_arg_of_pericenter": 348.0528,
        "meta_mean_anomaly": 12.02,
        "meta_ephemeris_type": 0,
        "meta_classification_type": "U",
        "meta_norad_cat_id": 66546,
        "meta_element_set_no": 999,
        "meta_rev_at_epoch": 310,
        "meta_bstar": 0.00088192673,
        "meta_mean_motion_dot": 0.00016731,
        "meta_mean_motion_ddot": 0,
        "tle_line1": "1 66546U 25266B   25343.59248374  .00016731  00000+0  88193-3 0  9996",
        "tle_line2": "2 66546  51.7973 347.6109 0010427 348.0528  12.0200 15.15642408  3100"
      },
      "geometry": {
        "type": "Point",
        "coordinates": [
          -19.832524080607328,
          -8.210910396317466
        ]
      }
    },
    {
      "type": "Feature",
      "properties": {
        "norad_id": 66547,
        "name": "SHIJIAN-30C",
        "group": "last-30-days",
        "lat": -11.068209522176062,
        "lon": -22.16013217092425,
        "alt_km": 513.2547992826658,
        "timestamp": "2025-12-09T18:55:16.022511+00:00",
        "meta_object_name": "SHIJIAN-30C",
        "meta_object_id": "2025-266C",
        "meta_epoch": "2025-12-09T14:14:08.604096",
        "meta_mean_motion": 15.15649292,
        "meta_eccentricity": 0.00113543,
        "meta_inclination": 51.7983,
        "meta_ra_of_asc_node": 347.6167,
        "meta_arg_of_pericenter": 340.3623,
        "meta_mean_anomaly": 19.6915,
        "meta_ephemeris_type": 0,
        "meta_classification_type": "U",
        "meta_norad_cat_id": 66547,
        "meta_element_set_no": 999,
        "meta_rev_at_epoch": 310,
        "meta_bstar": 0.00077808534,
        "meta_mean_motion_dot": 0.00014726,
        "meta_mean_motion_ddot": 0,
        "tle_line1": "1 66547U 25266C   25343.59315514  .00014726  00000+0  77809-3 0  9992",
        "tle_line2": "2 66547  51.7983 347.6167 0011354 340.3623  19.6915 15.15649292  3101"
      },
      "geometry": {
        "type": "Point",
        "coordinates": [
          -22.16013217092425,
          -11.068209522176062
        ]
      }
    },
    {
      "type": "Feature",
      "properties": {
        "norad_id": 66548,
        "name": "CZ-2C R/B",
        "group": "last-30-days",
        "lat": -20.5839593238262,
        "lon": -31.70087967329127,
        "alt_km": 535.4506971461806,
        "timestamp": "2025-12-09T18:55:16.022521+00:00",
        "meta_object_name": "CZ-2C R/B",
        "meta_object_id": "2025-266D",
        "meta_epoch": "2025-12-09T06:29:52.577088",
        "meta_mean_motion": 15.30065913,
        "meta_eccentricity": 0.0084126,
        "meta_inclination": 52.0568,
        "meta_ra_of_asc_node": 347.8047,
        "meta_arg_of_pericenter": 161.1693,
        "meta_mean_anomaly": 199.2437,
        "meta_ephemeris_type": 0,
        "meta_classification_type": "U",
        "meta_norad_cat_id": 66548,
        "meta_element_set_no": 999,
        "meta_rev_at_epoch": 308,
        "meta_bstar": 0.00042678,
        "meta_mean_motion_dot": 0.00013661,
        "meta_mean_motion_ddot": 0,
        "tle_line1": "1 66548U 25266D   25343.27074742  .00013661  00000+0  42678-3 0  9996",
        "tle_line2": "2 66548  52.0568 347.8047 0084126 161.1693 199.2437 15.30065913  3087"
      },
      "geometry": {
        "type": "Point",
        "coordinates": [
          -31.70087967329127,
          -20.5839593238262
        ]
      }
    },
    {
      "type": "Feature",
      "properties": {
        "norad_id": 66549,
        "name": "SHIJIAN-28",
        "group": "last-30-days",
        "lat": -0.7813125995565374,
        "lon": -89.83972367587387,
        "alt_km": 35285.875781723014,
        "timestamp": "2025-12-09T18:55:16.022534+00:00",
        "meta_object_name": "SHIJIAN-28",
        "meta_object_id": "2025-277A",
        "meta_epoch": "2025-12-01T04:36:42.476256",
        "meta_mean_motion": 2.08595383,
        "meta_eccentricity": 0.6308324,
        "meta_inclination": 11.5392,
        "meta_ra_of_asc_node": 275.706,
        "meta_arg_of_pericenter": 179.9335,
        "meta_mean_anomaly": 180.3971,
        "meta_ephemeris_type": 0,
        "meta_classification_type": "U",
        "meta_norad_cat_id": 66549,
        "meta_element_set_no": 999,
        "meta_rev_at_epoch": 5,
        "meta_bstar": 0,
        "meta_mean_motion_dot": -3.3e-07,
        "meta_mean_motion_ddot": 0,
        "tle_line1": "1 66549U 25277A   25335.19215829 -.00000033  00000+0  00000+0 0  9993",
        "tle_line2": "2 66549  11.5392 275.7060 6308324 179.9335 180.3971  2.08595383    50"
      },
      "geometry": {
        "type": "Point",
        "coordinates": [
          -89.83972367587387,
          -0.7813125995565374
        ]
      }
    },
    {
      "type": "Feature",
      "properties": {
        "norad_id": 66550,
        "name": "CZ-7A R/B",
        "group": "last-30-days",
        "lat": 12.123324333742918,
        "lon": -31.956542836158825,
        "alt_km": 13569.028962394339,
        "timestamp": "2025-12-09T18:55:16.022554+00:00",
        "meta_object_name": "CZ-7A R/B",
        "meta_object_id": "2025-277B",
        "meta_epoch": "2025-12-08T10:49:33.008736",
        "meta_mean_motion": 2.55273447,
        "meta_eccentricity": 0.7123859,
        "meta_inclination": 14.4003,
        "meta_ra_of_asc_node": 272.0222,
        "meta_arg_of_pericenter": 184.9879,
        "meta_mean_anomaly": 159.498,
        "meta_ephemeris_type": 0,
        "meta_classification_type": "U",
        "meta_norad_cat_id": 66550,
        "meta_element_set_no": 999,
        "meta_rev_at_epoch": 23,
        "meta_bstar": 0.0028793,
        "meta_mean_motion_dot": 0.01610432,
        "meta_mean_motion_ddot": 9.1299e-07,
        "tle_line1": "1 66550U 25277B   25342.45107649  .01610432  91299-6  28793-2 0  9991",
        "tle_line2": "2 66550  14.4003 272.0222 7123859 184.9879 159.4980  2.55273447   234"
      },
      "geometry": {
        "type": "Point",
        "coordinates": [
          -31.956542836158825,
          12.123324333742918
        ]
      }
    },
    {
      "type": "Feature",
      "properties": {
        "norad_id": 66551,
        "name": "UNKNOWN",
        "group": "last-30-days",
        "lat": -51.127290613114205,
        "lon": 89.95277159464328,
        "alt_km": 331.4705931948829,
        "timestamp": "2025-12-09T18:55:16.022565+00:00",
        "meta_object_name": "UNKNOWN",
        "meta_object_id": "2025-271AE",
        "meta_epoch": "2025-12-02T16:00:03.000096",
        "meta_mean_motion": 15.87051116,
        "meta_eccentricity": 7.17e-05,
        "meta_inclination": 53.1571,
        "meta_ra_of_asc_node": 236.7807,
        "meta_arg_of_pericenter": 110.7411,
        "meta_mean_anomaly": 313.9012,
        "meta_ephemeris_type": 0,
        "meta_classification_type": "U",
        "meta_norad_cat_id": 66551,
        "meta_element_set_no": 999,
        "meta_rev_at_epoch": 262,
        "meta_bstar": -0.0074303,
        "meta_mean_motion_dot": -0.01709685,
        "meta_mean_motion_ddot": 0,
        "tle_line1": "1 66551U 25271AE  25336.66670139 -.01709685  00000+0 -74303-2 0  9993",
        "tle_line2": "2 66551  53.1571 236.7807 0000717 110.7411 313.9012 15.87051116  2624"
      },
      "geometry": {
        "type": "Point",
        "coordinates": [
          89.95277159464328,
          -51.127290613114205
        ]
      }
    }
  ]
}